start=new Date('2023-03-30T00:00:00.000Z').valueOf();
sats=[{"TLE_LINE1":"1 49443U 21104AM  23088.19851518  .00014198  00000-0  90773-3 0  9993","PERIOD":"95.436","EPHEMERIS_TYPE":"0","MEAN_MOTION":"15.08865567","PERIAPSIS":"538.845","INCLINATION":"53.2171","SITE":"AFETR","TIME_SYSTEM":"UTC","EPOCH":"2023-03-29T04:45:51.711552","TLE_LINE2":"2 49443  53.2171   1.6802 0001188  68.0627 292.0491 15.08865567 76404","GP_ID":"229104342","BSTAR":"0.00090773000000","MEAN_MOTION_DOT":"0.00014198","NORAD_CAT_ID":"49443","CLASSIFICATION_TYPE":"U","MEAN_ANOMALY":"292.0491","CENTER_NAME":"EARTH","DECAY_DATE":null,"COUNTRY_CODE":"US","ECCENTRICITY":"0.00011880","OBJECT_ID":"2021-104AM","RA_OF_ASC_NODE":"1.6802","MEAN_ELEMENT_THEORY":"SGP4","RCS_SIZE":"LARGE","FILE":"3874492","LAUNCH_DATE":"2021-11-13","APOAPSIS":"540.489","ELEMENT_SET_NO":"999","OBJECT_TYPE":"PAYLOAD","MEAN_MOTION_DDOT":"0.0000000000000","OBJECT_NAME":"STARLINK-3136","REV_AT_EPOCH":"7640","ARG_OF_PERICENTER":"68.0627","REF_FRAME":"TEME","SEMIMAJOR_AXIS":"6917.802"},{"MEAN_ELEMENT_THEORY":"SGP4","RA_OF_ASC_NODE":"1.9074","OBJECT_ID":"2021-104AN","FILE":"3874492","RCS_SIZE":"LARGE","ECCENTRICITY":"0.00012030","DECAY_DATE":null,"COUNTRY_CODE":"US","MEAN_ANOMALY":"250.3204","CENTER_NAME":"EARTH","ARG_OF_PERICENTER":"109.7918","REF_FRAME":"TEME","SEMIMAJOR_AXIS":"6917.820","OBJECT_NAME":"STARLINK-3126","REV_AT_EPOCH":"7639","MEAN_MOTION_DDOT":"0.0000000000000","LAUNCH_DATE":"2021-11-13","APOAPSIS":"540.517","OBJECT_TYPE":"PAYLOAD","ELEMENT_SET_NO":"999","SITE":"AFETR","MEAN_MOTION":"15.08859869","EPHEMERIS_TYPE":"0","INCLINATION":"53.2174","PERIAPSIS":"538.852","PERIOD":"95.436","TLE_LINE1":"1 49444U 21104AN  23088.14699175  .00006023  00000-0  39599-3 0  9995","CLASSIFICATION_TYPE":"U","GP_ID":"229105094","TLE_LINE2":"2 49444  53.2174   1.9074 0001203 109.7918 250.3204 15.08859869 76391","MEAN_MOTION_DOT":"0.00006023","BSTAR":"0.00039599000000","NORAD_CAT_ID":"49444","EPOCH":"2023-03-29T03:31:40.087200","TIME_SYSTEM":"UTC"},{"BSTAR":"0.00029327000000","TLE_LINE2":"2 49445  53.2171  11.5453 0001152  88.2895 271.8229 15.08857775 77340","GP_ID":"229115112","MEAN_MOTION_DOT":"0.00004385","NORAD_CAT_ID":"49445","TIME_SYSTEM":"UTC","EPOCH":"2023-03-29T05:26:55.550976","CLASSIFICATION_TYPE":"U","PERIOD":"95.436","TLE_LINE1":"1 49445U 21104AP  23088.22703184  .00004385  00000-0  29327-3 0  9998","SITE":"AFETR","EPHEMERIS_TYPE":"0","MEAN_MOTION":"15.08857775","PERIAPSIS":"538.894","INCLINATION":"53.2171","MEAN_MOTION_DDOT":"0.0000000000000","LAUNCH_DATE":"2021-11-13","APOAPSIS":"540.488","ELEMENT_SET_NO":"999","OBJECT_TYPE":"PAYLOAD","ARG_OF_PERICENTER":"88.2895","REF_FRAME":"TEME","SEMIMAJOR_AXIS":"6917.826","REV_AT_EPOCH":"7734","OBJECT_NAME":"STARLINK-3122","DECAY_DATE":null,"COUNTRY_CODE":"US","MEAN_ANOMALY":"271.8229","CENTER_NAME":"EARTH","RA_OF_ASC_NODE":"11.5453","MEAN_ELEMENT_THEORY":"SGP4","OBJECT_ID":"2021-104AP","RCS_SIZE":"LARGE","FILE":"3874743","ECCENTRICITY":"0.00011520"},{"INCLINATION":"53.2165","PERIAPSIS":"538.873","MEAN_MOTION":"15.08866563","EPHEMERIS_TYPE":"0","SITE":"AFETR","TLE_LINE1":"1 49446U 21104AQ  23088.20955430  .00014517  00000-0  92762-3 0  9991","PERIOD":"95.436","CLASSIFICATION_TYPE":"U","EPOCH":"2023-03-29T05:01:45.491520","TIME_SYSTEM":"UTC","NORAD_CAT_ID":"49446","GP_ID":"229103593","TLE_LINE2":"2 49446  53.2165   1.6254 0001144 101.2985 258.8136 15.08866563 76403","BSTAR":"0.00092762000000","MEAN_MOTION_DOT":"0.00014517","ECCENTRICITY":"0.00011440","FILE":"3874492","RCS_SIZE":"LARGE","MEAN_ELEMENT_THEORY":"SGP4","RA_OF_ASC_NODE":"1.6254","OBJECT_ID":"2021-104AQ","CENTER_NAME":"EARTH","MEAN_ANOMALY":"258.8136","COUNTRY_CODE":"US","DECAY_DATE":null,"REV_AT_EPOCH":"7640","OBJECT_NAME":"STARLINK-3099","SEMIMAJOR_AXIS":"6917.799","ARG_OF_PERICENTER":"101.2985","REF_FRAME":"TEME","OBJECT_TYPE":"PAYLOAD","ELEMENT_SET_NO":"999","LAUNCH_DATE":"2021-11-13","APOAPSIS":"540.456","MEAN_MOTION_DDOT":"0.0000000000000"},{"TIME_SYSTEM":"UTC","EPOCH":"2023-03-29T05:16:19.574400","NORAD_CAT_ID":"49447","TLE_LINE2":"2 49447  53.2182  11.5833 0000982  93.8247 266.2858 15.08859805 76261","GP_ID":"229103843","MEAN_MOTION_DOT":"0.00005007","BSTAR":"0.00033225000000","CLASSIFICATION_TYPE":"U","TLE_LINE1":"1 49447U 21104AR  23088.21967100  .00005007  00000-0  33225-3 0  9993","PERIOD":"95.436","PERIAPSIS":"539.006","INCLINATION":"53.2182","EPHEMERIS_TYPE":"0","MEAN_MOTION":"15.08859805","SITE":"AFETR","ELEMENT_SET_NO":"999","OBJECT_TYPE":"PAYLOAD","LAUNCH_DATE":"2021-11-13","APOAPSIS":"540.364","MEAN_MOTION_DDOT":"0.0000000000000","OBJECT_NAME":"STARLINK-3115","REV_AT_EPOCH":"7626","SEMIMAJOR_AXIS":"6917.820","ARG_OF_PERICENTER":"93.8247","REF_FRAME":"TEME","CENTER_NAME":"EARTH","MEAN_ANOMALY":"266.2858","COUNTRY_CODE":"US","DECAY_DATE":null,"ECCENTRICITY":"0.00009820","RCS_SIZE":"LARGE","FILE":"3874492","RA_OF_ASC_NODE":"11.5833","MEAN_ELEMENT_THEORY":"SGP4","OBJECT_ID":"2021-104AR"},{"ECCENTRICITY":"0.00011750","MEAN_ELEMENT_THEORY":"SGP4","RA_OF_ASC_NODE":"11.8564","OBJECT_ID":"2021-104AS","FILE":"3874492","RCS_SIZE":"LARGE","MEAN_ANOMALY":"263.9080","CENTER_NAME":"EARTH","DECAY_DATE":null,"COUNTRY_CODE":"US","REV_AT_EPOCH":"7625","OBJECT_NAME":"STARLINK-3097","REF_FRAME":"TEME","ARG_OF_PERICENTER":"96.2046","SEMIMAJOR_AXIS":"6917.798","APOAPSIS":"540.475","LAUNCH_DATE":"2021-11-13","OBJECT_TYPE":"PAYLOAD","ELEMENT_SET_NO":"999","MEAN_MOTION_DDOT":"0.0000000000000","MEAN_MOTION":"15.08867114","EPHEMERIS_TYPE":"0","INCLINATION":"53.2177","PERIAPSIS":"538.850","SITE":"AFETR","TLE_LINE1":"1 49448U 21104AS  23088.16911435  .00022490  00000-0  14256-2 0  9995","PERIOD":"95.436","CLASSIFICATION_TYPE":"U","EPOCH":"2023-03-29T04:03:31.479840","TIME_SYSTEM":"UTC","TLE_LINE2":"2 49448  53.2177  11.8564 0001175  96.2046 263.9080 15.08867114 76251","BSTAR":"0.00142560000000","GP_ID":"229104595","MEAN_MOTION_DOT":"0.00022490","NORAD_CAT_ID":"49448"},{"TLE_LINE1":"1 49449U 21104AT  23088.21598821  .00003868  00000-0  26079-3 0  9997","PERIOD":"95.436","EPHEMERIS_TYPE":"0","MEAN_MOTION":"15.08862831","PERIAPSIS":"538.870","INCLINATION":"53.2175","SITE":"AFETR","TIME_SYSTEM":"UTC","EPOCH":"2023-03-29T05:11:01.381344","TLE_LINE2":"2 49449  53.2175  11.5967 0001165  82.7996 277.3129 15.08862831 77342","GP_ID":"229114957","BSTAR":"0.00026079000000","MEAN_MOTION_DOT":"0.00003868","NORAD_CAT_ID":"49449","CLASSIFICATION_TYPE":"U","MEAN_ANOMALY":"277.3129","CENTER_NAME":"EARTH","DECAY_DATE":null,"COUNTRY_CODE":"US","ECCENTRICITY":"0.00011650","RA_OF_ASC_NODE":"11.5967","MEAN_ELEMENT_THEORY":"SGP4","OBJECT_ID":"2021-104AT","RCS_SIZE":"LARGE","FILE":"3874743","APOAPSIS":"540.482","LAUNCH_DATE":"2021-11-13","ELEMENT_SET_NO":"999","OBJECT_TYPE":"PAYLOAD","MEAN_MOTION_DDOT":"0.0000000000000","REV_AT_EPOCH":"7734","OBJECT_NAME":"STARLINK-3137","REF_FRAME":"TEME","ARG_OF_PERICENTER":"82.7996","SEMIMAJOR_AXIS":"6917.811"},{"TLE_LINE1":"1 49450U 21104AU  23088.22335029  .00019296  00000-0  12262-2 0  9999","PERIOD":"95.436","EPHEMERIS_TYPE":"0","MEAN_MOTION":"15.08868868","PERIAPSIS":"538.904","INCLINATION":"53.2168","SITE":"AFETR","TIME_SYSTEM":"UTC","EPOCH":"2023-03-29T05:21:37.465056","BSTAR":"0.00122620000000","TLE_LINE2":"2 49450  53.2168  11.5700 0001088 102.0158 258.0956 15.08868868 76520","GP_ID":"229104093","MEAN_MOTION_DOT":"0.00019296","NORAD_CAT_ID":"49450","CLASSIFICATION_TYPE":"U","MEAN_ANOMALY":"258.0956","CENTER_NAME":"EARTH","DECAY_DATE":null,"COUNTRY_CODE":"US","ECCENTRICITY":"0.00010880","RA_OF_ASC_NODE":"11.5700","MEAN_ELEMENT_THEORY":"SGP4","OBJECT_ID":"2021-104AU","RCS_SIZE":"LARGE","FILE":"3874492","LAUNCH_DATE":"2021-11-13","APOAPSIS":"540.410","ELEMENT_SET_NO":"999","OBJECT_TYPE":"PAYLOAD","MEAN_MOTION_DDOT":"0.0000000000000","OBJECT_NAME":"STARLINK-3127","REV_AT_EPOCH":"7652","REF_FRAME":"TEME","ARG_OF_PERICENTER":"102.0158","SEMIMAJOR_AXIS":"6917.792"},{"REV_AT_EPOCH":"7624","OBJECT_NAME":"STARLINK-3125","REF_FRAME":"TEME","ARG_OF_PERICENTER":"81.4727","SEMIMAJOR_AXIS":"6917.828","APOAPSIS":"540.453","LAUNCH_DATE":"2021-11-13","ELEMENT_SET_NO":"999","OBJECT_TYPE":"PAYLOAD","MEAN_MOTION_DDOT":"0.0000000000000","ECCENTRICITY":"0.00010990","MEAN_ELEMENT_THEORY":"SGP4","RA_OF_ASC_NODE":"12.2129","OBJECT_ID":"2021-104AV","RCS_SIZE":"LARGE","FILE":"3874492","MEAN_ANOMALY":"278.6389","CENTER_NAME":"EARTH","DECAY_DATE":null,"COUNTRY_CODE":"US","CLASSIFICATION_TYPE":"U","TIME_SYSTEM":"UTC","EPOCH":"2023-03-29T01:54:57.748320","GP_ID":"229104343","TLE_LINE2":"2 49451  53.2183  12.2129 0001099  81.4727 278.6389 15.08857157 76241","BSTAR":"-0.00003705600000","MEAN_MOTION_DOT":"-0.00000878","NORAD_CAT_ID":"49451","EPHEMERIS_TYPE":"0","MEAN_MOTION":"15.08857157","PERIAPSIS":"538.933","INCLINATION":"53.2183","SITE":"AFETR","TLE_LINE1":"1 49451U 21104AV  23088.07983505 -.00000878  00000-0 -37056-4 0  9999","PERIOD":"95.436"},{"CLASSIFICATION_TYPE":"U","MEAN_MOTION_DOT":"0.00035887","TLE_LINE2":"2 49452  53.2172  11.6909 0001407  89.1809 270.9345 15.08893083 76265","GP_ID":"229105095","BSTAR":"0.00225820000000","NORAD_CAT_ID":"49452","TIME_SYSTEM":"UTC","EPOCH":"2023-03-29T04:49:50.176416","SITE":"AFETR","EPHEMERIS_TYPE":"0","MEAN_MOTION":"15.08893083","PERIAPSIS":"538.610","INCLINATION":"53.2172","PERIOD":"95.434","TLE_LINE1":"1 49452U 21104AW  23088.20127519  .00035887  00000-0  22582-2 0  9992","ARG_OF_PERICENTER":"89.1809","REF_FRAME":"TEME","SEMIMAJOR_AXIS":"6917.718","OBJECT_NAME":"STARLINK-3150","REV_AT_EPOCH":"7626","MEAN_MOTION_DDOT":"0.0000000000000","APOAPSIS":"540.556","LAUNCH_DATE":"2021-11-13","ELEMENT_SET_NO":"999","OBJECT_TYPE":"PAYLOAD","OBJECT_ID":"2021-104AW","RA_OF_ASC_NODE":"11.6909","MEAN_ELEMENT_THEORY":"SGP4","RCS_SIZE":"LARGE","FILE":"3874492","ECCENTRICITY":"0.00014070","DECAY_DATE":null,"COUNTRY_CODE":"US","MEAN_ANOMALY":"270.9345","CENTER_NAME":"EARTH"}];
